INTELSAT 30             
1 40271C 14062A   21147.00000000 -.00003033  00000-0  00000-0 0  1477
2 40271   0.0041 332.1711 0001863 119.9281  57.6136  1.00270763    13
INTELSAT 34             
1 40874C 15039A   21144.00000000 -.00000196  00000-0  00000-0 0  1442
2 40874   0.0114 303.2027 0000294  81.8426 161.2841  1.00271503    15
INTELSAT 34             
1 40874C 15039A   21147.00000000 -.00000196  00000-0  00000-0 0  1478
2 40874   0.0070 322.9891 0000331  85.7460 140.5554  1.00271266    13
INTELSAT 34         [PM]
1 40874C 15039A   21147.76315972 -.00000196  00000-0  00000-0 0  1478
2 40874   0.0088 299.2777 0000529  93.5264  71.9712  1.00272214    16
INTELSAT 31             
1 41581C 16035A   21144.00000000 -.00000057  00000-0  00000-0 0  1441
2 41581   0.0117 268.1496 0002034 302.6525 295.9718  1.00270698    13
INTELSAT 31             
1 41581C 16035A   21147.00000000 -.00003138  00000-0  00000-0 0  1470
2 41581   0.0058 281.2288 0002058 286.4011 302.0981  1.00270668    16
INTELSAT 31         [PM]
1 41581C 16035A   21147.63327546 -.00003813  00000-0  00000-0 0  1476
2 41581   0.0148 252.8532 0001889 304.0648 181.4076  1.00272276    17
INTELSAT 36             
1 41747C 16053A   21144.00000000  .00000065  00000-0  00000-0 0  1443
2 41747   0.0193 320.4966 0002074  58.1483 291.6959  1.00269671    14
INTELSAT 36             
1 41747C 16053A   21147.00000000  .00000060  00000-0  00000-0 0  1474
2 41747   0.0147 346.0746 0001978  38.4290 288.7604  1.00269745    18
INTELSAT 36         [PM]
1 41747C 16053A   21148.44103009  .00000066  00000-0  00000-0 0  1483
2 41747   0.0113 336.8436 0001894  40.9103  95.6910  1.00271338    18
INTELSAT 33E            
1 41748C 16053B   21144.00000000  .00000139  00000-0  00000-0 0  1446
2 41748   0.0323  27.4525 0002126  45.2645 229.0991  1.00270920    10
INTELSAT 33E        [PM]
1 41748C 16053B   21145.95674769  .00000139  00000-0  00000-0 0  1451
2 41748   0.0258   7.6703 0002136  75.7917 204.7019  1.00271504    16
INTELSAT 33E            
1 41748C 16053B   21147.00000000  .00000139  00000-0  00000-0 0  1472
2 41748   0.0269  18.2755 0002180  66.9523 219.5332  1.00271809    17
INTELSAT 33E        [PM]
1 41748C 16053B   21150.95732639  .00000139  00000-0  00000-0 0  1504
2 41748   0.0197  13.7503 0002211  85.6968 193.8549  1.00272463    15
INTELSAT 32E            
1 41945C 17007B   21144.00000000 -.00000178  00000-0  00000-0 0  1449
2 41945   0.0062   0.0135 0000489  12.4036 186.2428  1.00269676    18
INTELSAT 32E        [PM]
1 41945C 17007B   21146.36854167 -.00003353  00000-0  00000-0 0  1461
2 41945   0.0205  47.2112 0000655 322.5945 323.8313  1.00274117    12
INTELSAT 32E            
1 41945C 17007B   21147.00000000 -.00000190  00000-0  00000-0 0  1479
2 41945   0.0390  94.0681 0000335 324.1659 143.3539  1.00269493    19
INTELSAT 35E            
1 42818C 17041A   21144.00000000 -.00000148  00000-0  00000-0 0  1444
2 42818   0.0129 250.2406 0002383 174.6241 142.4735  1.00271753    10
INTELSAT 35E        [PM]
1 42818C 17041A   21144.34269676 -.00000147  00000-0  00000-0 0  1446
2 42818   0.0116 252.4483 0002370 173.0415 265.5569  1.00271792    12
INTELSAT 35E            
1 42818C 17041A   21147.00000000 -.00000157  00000-0  00000-0 0  1470
2 42818   0.0387 149.1132 0002417 282.3750 138.8003  1.00271194    14
INTELSAT 35E        [PM]
1 42818C 17041A   21150.72047454 -.00000148  00000-0  00000-0 0  1501
2 42818   0.0279 198.3257 0002391 237.5310  37.4542  1.00269853    14
INTELSAT 37E            
1 42950C 17059A   21144.00000000 -.00000051  00000-0  00000-0 0  1443
2 42950   0.0116 295.1071 0002728 138.8055 149.9098  1.00269871    19
INTELSAT 37E        [PM]
1 42950C 17059A   21145.88333333 -.00000051  00000-0  00000-0 0  1459
2 42950   0.0050 315.4095 0002816 118.7174 109.5345  1.00272891    18
INTELSAT 37E            
1 42950C 17059A   21147.00000000 -.00000053  00000-0  00000-0 0  1471
2 42950   0.0015 330.8819 0002848 105.0420 150.8416  1.00272890    19
INTELSAT 37E        [PM]
1 42950C 17059A   21150.17708333 -.00000051  00000-0  00000-0 0  1509
2 42950   0.0047 306.5541 0002769 137.1668 209.9342  1.00271682    10
AZERSPACE 2             
1 43632C 18074A   21144.00000000  .00000195  00000-0  00000-0 0  1447
2 43632   0.0000 304.1372 0001725 122.8633 219.9356  1.00269735    19
AZERSPACE 2             
1 43632C 18074A   21147.00000000 -.00003367  00000-0  00000-0 0  1478
2 43632   0.0060  13.0405 0001787  64.9257 211.9168  1.00271103    19
HORIZONS 3E             
1 43633C 18074B   21144.20833333  .00000022  00000-0  00000-0 0  1442
2 43633   0.0068 203.4924 0000227 118.7963 163.7453  1.00270223    12
HORIZONS 3E             
1 43633C 18074B   21147.00000000  .00000050  00000-0  00000-0 0  1474
2 43633   0.0170  68.2062 0000314 260.0659  85.5082  1.00269575    13
INTELSAT 39             
1 44476C 19049B   21144.00000000  .00000123  00000-0  00000-0 0  1448
2 44476   0.0104 299.6070 0000338  89.5920 274.5752  1.00270957    16
INTELSAT 39         [PM]
1 44476C 19049B   21146.49150463  .00000122  00000-0  00000-0 0  1463
2 44476   0.0081 308.5236 0000277 104.9961  69.6450  1.00271585    19
INTELSAT 39             
1 44476C 19049B   21147.00000000  .00000081  00000-0  00000-0 0  1477
2 44476   0.0047 323.6021 0000328  98.1866 244.9331  1.00270671    17
GALAXY 30               
1 46114C 20056C   21144.00000000  .00000095  00000-0  00000-0 0  1447
2 46114   0.0000 312.4208 0002383 118.9540  45.4597  1.00269143    13
GALAXY 30           [PM]
1 46114C 20056C   21146.95282407  .00000114  00000-0  00000-0 0  1460
2 46114   0.0033 317.0495 0002474 121.3837  24.3040  1.00270112    13
GALAXY 30               
1 46114C 20056C   21147.00000000 -.00003495  00000-0  00000-0 0  1471
2 46114   0.0227  57.8744 0002482  19.8830  42.0087  1.00270089    18
GALAXY 30           [PM]
1 46114C 20056C   21148.94791667 -.00003466  00000-0  00000-0 0  1480
2 46114   0.0000 342.0848 0002503  99.9084  20.9342  1.00270527    11
